{"type":"FeatureCollection","metadata":{"source":"Kartverket, Administrative enheter fylker (Kommuneinfo API)","licence":"CC BY 4.0","simplified":"Douglas-Peucker 0.012 degrees, small islands removed, rings wound clockwise (d3)"},"features":[{"type":"Feature","id":"03","properties":{"fylkesnummer":"03","fylkesnavn":"Oslo"},"geometry":{"type":"MultiPolygon","coordinates":[[[[10.9371,59.9704],[10.9514,59.9492],[10.9214,59.9265],[10.9072,59.8699],[10.9366,59.8317],[10.8563,59.8093],[10.7716,59.8235],[10.744,59.8393],[10.731,59.8772],[10.6581,59.8844],[10.6257,59.9227],[10.6356,59.9478],[10.614,59.9743],[10.4892,60.0173],[10.5973,60.0773],[10.5728,60.1168],[10.6039,60.1339],[10.6803,60.1335],[10.7677,60.113],[10.7548,60.1002],[10.7857,60.0691],[10.8196,60.0647],[10.8117,60.0255],[10.8377,59.998],[10.9371,59.9704]]]]}},{"type":"Feature","id":"11","properties":{"fylkesnummer":"11","fylkesnavn":"Rogaland"},"geometry":{"type":"MultiPolygon","coordinates":[[[[5.2303,58.546],[5.1167,58.6927],[5.0059,58.9231],[4.8952,59.0006],[4.5611,59.1362],[4.4754,59.2125],[4.4555,59.269],[4.4612,59.3226],[4.6037,59.5582],[4.9769,59.4961],[5.1874,59.5155],[5.3147,59.4754],[5.3649,59.495],[5.3973,59.4832],[5.5109,59.5225],[5.551,59.5655],[5.5382,59.6158],[5.5807,59.7536],[5.6349,59.7003],[5.6875,59.6861],[5.7642,59.6997],[5.7845,59.6474],[5.963,59.6011],[5.9694,59.579],[6.0592,59.5983],[6.183,59.5861],[6.186,59.6399],[6.2071,59.6467],[6.2249,59.6919],[6.2684,59.7032],[6.2713,59.7358],[6.3024,59.7674],[6.4255,59.7899],[6.5381,59.8428],[6.6567,59.8446],[6.6935,59.823],[6.6783,59.7926],[6.6901,59.7695],[6.6573,59.7017],[6.7675,59.7005],[6.9772,59.7721],[7.0963,59.7828],[7.1101,59.7006],[7.2147,59.6727],[7.0987,59.6513],[7.0486,59.5868],[6.9918,59.597],[6.9803,59.5234],[6.963,59.5165],[7.0229,59.4812],[6.8828,59.4293],[6.9322,59.4003],[6.8909,59.3982],[6.8316,59.3173],[6.8377,59.1926],[6.9392,59.1819],[6.881,59.1446],[6.9037,59.1134],[6.5608,58.91],[6.5675,58.8857],[6.6086,58.8801],[6.5181,58.7674],[6.5727,58.7653],[6.5736,58.7414],[6.622,58.696],[6.4361,58.6493],[6.4975,58.6099],[6.5325,58.6279],[6.6147,58.6251],[6.5879,58.5902],[6.6182,58.5553],[6.5877,58.4928],[6.6322,58.4514],[6.5953,58.4163],[6.6085,58.3722],[6.5434,58.3195],[6.373,58.2765],[6.1497,58.0279],[5.5902,58.2906],[5.3521,58.4359],[5.2303,58.546]]]]}},{"type":"Feature","id":"15","properties":{"fylkesnummer":"15","fylkesnavn":"Møre og Romsdal"},"geometry":{"type":"MultiPolygon","coordinates":[[[[9.068,62.7532],[8.92,62.7118],[9.1522,62.5729],[9.221,62.5747],[9.2438,62.5553],[9.206,62.5207],[9.1836,62.4266],[9.1047,62.382],[8.9711,62.3539],[8.7926,62.3784],[8.2752,62.348],[8.1313,62.2907],[7.9836,62.1775],[7.7346,62.1846],[7.5794,62.1219],[7.6318,62.0851],[7.5838,62.0653],[7.5143,62.0974],[7.4147,62.0921],[7.402,62.0601],[7.3425,62.0354],[7.3491,62.0077],[7.1949,62.0307],[7.1855,62.0144],[7.0735,62.0094],[7.0514,61.9844],[6.9516,61.9887],[6.7481,61.9535],[6.6563,61.9624],[6.5375,61.9462],[6.5023,61.9233],[6.4311,61.9516],[6.421,61.9817],[6.3113,61.9587],[6.2358,61.9918],[6.2575,62.0056],[6.2172,62.0094],[6.1818,62.0107],[6.1166,61.9651],[6.0399,61.9566],[5.9269,61.9966],[5.8026,61.966],[5.729,61.9808],[5.5516,61.9604],[5.476,61.9859],[5.4429,61.9742],[5.5032,62.0079],[5.4855,62.0143],[5.5031,62.0667],[5.3609,62.1222],[5.3573,62.1686],[5.2179,62.2612],[4.8166,62.3824],[4.9491,62.4719],[5.9637,62.9618],[6.8389,63.2598],[7.6481,63.7682],[8.0095,63.6491],[8.1087,63.5981],[8.2405,63.4221],[8.3429,63.3594],[8.7427,63.4475],[8.7629,63.4149],[8.8032,63.4023],[8.7989,63.3715],[8.9111,63.3565],[8.8631,63.3217],[8.866,63.2952],[8.8157,63.2661],[8.8627,63.2313],[8.819,63.1948],[8.6722,63.1873],[8.4829,63.1497],[8.2635,63.1545],[8.1027,63.1294],[8.203,63.0228],[8.2437,63.0121],[8.3286,63.0451],[8.4252,63.0467],[8.4815,63.0797],[8.502,63.049],[8.6526,63.0642],[8.8072,63.1266],[8.8601,63.1143],[8.97,63.1339],[8.9952,63.1036],[8.959,63.0931],[8.9728,63.0725],[9.0837,63.0904],[9.1142,63.0401],[9.1044,63.0291],[9.1563,63.017],[9.1407,63.0009],[9.1776,62.993],[9.1106,62.9713],[9.131,62.9577],[9.1145,62.958],[9.1224,62.9351],[9.1743,62.9172],[9.2667,62.9258],[9.3079,62.9053],[9.2861,62.8773],[9.3312,62.8621],[9.3236,62.8095],[9.3648,62.7941],[9.068,62.7532]]]]}},{"type":"Feature","id":"18","properties":{"fylkesnummer":"18","fylkesnavn":"Nordland"},"geometry":{"type":"MultiPolygon","coordinates":[[[[13.2171,65.1106],[13.0854,65.11],[13.0532,65.0738],[12.996,65.0684],[12.9676,65.0329],[12.9079,65.0291],[12.9481,65.0],[12.9342,64.9846],[12.7747,64.9755],[12.7913,64.9534],[12.7683,64.9408],[12.7151,64.9526],[12.6287,64.9395],[12.5613,64.9903],[12.5078,64.9771],[12.3892,64.9912],[12.2768,64.9598],[12.1874,64.9781],[12.1916,64.9991],[12.1499,65.0189],[12.12,65.0129],[12.1317,64.999],[12.0494,65.0151],[12.036,65.0301],[12.0489,65.0669],[11.8786,65.0664],[11.9602,65.1168],[11.9359,65.1266],[11.9462,65.1489],[11.9155,65.1604],[11.8362,65.1579],[11.486,65.2369],[11.4004,65.2957],[11.0214,65.3944],[10.5781,65.4702],[10.7987,65.7018],[11.0914,66.1978],[11.585,66.684],[11.8588,66.8154],[11.3178,67.3841],[11.3101,67.4642],[11.403,67.5794],[11.6712,67.6882],[12.1285,67.8228],[12.2884,68.017],[12.6214,68.2588],[12.8021,68.3375],[13.264,68.4636],[13.7216,68.7462],[13.8668,68.8608],[14.7337,69.2314],[15.7193,69.5032],[16.2544,69.5967],[16.5176,69.4155],[16.3126,69.1659],[16.0523,69.0086],[16.1123,68.9318],[16.0265,68.9093],[15.9308,68.8252],[15.9386,68.8115],[16.024,68.8137],[16.0457,68.7578],[15.8903,68.7276],[15.8802,68.7091],[15.7841,68.7093],[15.7775,68.6869],[15.8041,68.6766],[15.7774,68.6518],[15.6455,68.6326],[15.6679,68.5867],[15.5925,68.5692],[15.6676,68.5114],[15.6754,68.4855],[15.6181,68.453],[15.6487,68.4433],[15.8291,68.5345],[15.8911,68.534],[15.8884,68.5579],[15.9623,68.6139],[16.0273,68.575],[15.9967,68.5557],[16.0066,68.542],[16.1251,68.5389],[16.1608,68.5221],[16.0405,68.4224],[16.0299,68.3768],[16.1622,68.3721],[16.5677,68.4343],[16.5526,68.4769],[16.5678,68.5016],[16.7143,68.5108],[16.8669,68.5728],[17.2045,68.5573],[17.5476,68.597],[18.0233,68.6085],[18.1259,68.5365],[18.1011,68.406],[18.1514,68.1988],[17.8998,67.9694],[17.2815,68.1188],[17.1805,68.0505],[16.7381,67.9142],[16.5563,67.6472],[16.4076,67.534],[16.158,67.5192],[16.0898,67.4353],[16.4041,67.205],[16.3878,67.0455],[16.0388,66.9124],[15.6214,66.5943],[15.3772,66.4843],[15.4847,66.2825],[15.0357,66.1536],[14.5163,66.1326],[14.6255,65.8118],[14.5415,65.7008],[14.4988,65.5213],[14.5068,65.3097],[14.3788,65.2476],[14.326,65.1189],[14.1643,65.1392],[13.6289,65.1053],[13.2171,65.1106]]]]}},{"type":"Feature","id":"31","properties":{"fylkesnummer":"31","fylkesnavn":"Østfold"},"geometry":{"type":"MultiPolygon","coordinates":[[[[10.5931,58.761],[10.6285,58.9546],[10.675,59.0453],[10.6227,59.1117],[10.651,59.1328],[10.6551,59.192],[10.5903,59.2685],[10.5782,59.3409],[10.5953,59.3741],[10.5367,59.4328],[10.6164,59.5346],[10.7287,59.4725],[10.7793,59.4957],[10.7866,59.5355],[10.7713,59.5516],[10.8467,59.5696],[10.8679,59.6074],[10.8917,59.6082],[10.8799,59.6187],[10.9353,59.6315],[10.9383,59.6473],[10.969,59.6426],[10.9845,59.6608],[10.9528,59.673],[10.97,59.7049],[11.2303,59.6827],[11.2373,59.757],[11.2547,59.7702],[11.3436,59.7546],[11.3731,59.7278],[11.3678,59.6982],[11.4659,59.6663],[11.5034,59.6321],[11.4773,59.6242],[11.4929,59.5936],[11.5454,59.6181],[11.532,59.6389],[11.5898,59.6496],[11.6239,59.6772],[11.723,59.6606],[11.6911,59.5895],[11.7532,59.4794],[11.7799,59.3865],[11.8162,59.3447],[11.8298,59.2416],[11.7833,59.2073],[11.7636,59.1145],[11.7762,59.088],[11.7105,59.0337],[11.6839,58.99],[11.6891,58.9568],[11.652,58.9062],[11.5725,58.8878],[11.5534,58.8989],[11.5374,58.8774],[11.4558,58.8892],[11.4646,58.9912],[11.3399,59.115],[11.1535,59.0793],[11.1171,59.0151],[11.0664,58.9774],[10.6389,58.8923],[10.5931,58.761]]]]}},{"type":"Feature","id":"32","properties":{"fylkesnummer":"32","fylkesnavn":"Akershus"},"geometry":{"type":"MultiPolygon","coordinates":[[[[11.3449,60.4561],[11.4326,60.3396],[11.6019,60.2673],[11.5624,60.176],[11.6525,60.123],[11.7781,60.0897],[11.7915,60.0478],[11.8181,60.0585],[11.8194,60.0236],[11.8393,60.0159],[11.7931,59.9572],[11.8214,59.9303],[11.8048,59.8986],[11.823,59.8928],[11.8339,59.8424],[11.926,59.794],[11.9449,59.6982],[11.8892,59.6932],[11.8557,59.6483],[11.7185,59.6239],[11.723,59.6606],[11.6239,59.6772],[11.5898,59.6496],[11.532,59.6389],[11.5454,59.6181],[11.4929,59.5936],[11.4773,59.6242],[11.5034,59.6321],[11.4659,59.6663],[11.3678,59.6982],[11.3731,59.7278],[11.3436,59.7546],[11.2547,59.7702],[11.2373,59.757],[11.2303,59.6827],[10.97,59.7049],[10.9528,59.673],[10.9845,59.6608],[10.969,59.6426],[10.9383,59.6473],[10.9353,59.6315],[10.8799,59.6187],[10.8917,59.6082],[10.8679,59.6074],[10.8467,59.5696],[10.7713,59.5516],[10.7866,59.5355],[10.7793,59.4957],[10.7282,59.4723],[10.6164,59.5346],[10.5431,59.4573],[10.3937,59.5147],[10.4235,59.5982],[10.4104,59.6671],[10.2901,59.7161],[10.3197,59.7262],[10.3226,59.7937],[10.3565,59.8042],[10.3285,59.8739],[10.3773,59.9113],[10.3499,59.9606],[10.4211,59.9861],[10.4125,60.0031],[10.4354,60.0299],[10.4777,60.0322],[10.5181,59.9993],[10.6105,59.9766],[10.6581,59.8844],[10.731,59.8772],[10.744,59.8393],[10.7716,59.8235],[10.8563,59.8093],[10.9366,59.8317],[10.9076,59.885],[10.9514,59.9492],[10.9257,59.9837],[10.8377,59.998],[10.8117,60.0255],[10.8196,60.0647],[10.7868,60.0682],[10.747,60.123],[10.6007,60.1316],[10.5607,60.1656],[10.332,60.2279],[10.3091,60.2464],[10.3195,60.2632],[10.1992,60.3755],[10.1943,60.4003],[10.3389,60.3661],[10.3885,60.3752],[10.3653,60.3278],[10.3864,60.3166],[10.5474,60.3276],[10.6051,60.3121],[10.7154,60.3391],[10.7631,60.3141],[10.8647,60.3139],[10.9339,60.3467],[10.9031,60.3963],[10.8195,60.4274],[10.672,60.4339],[10.7102,60.454],[10.6924,60.492],[10.7113,60.4972],[10.7108,60.5221],[10.7794,60.4892],[10.9226,60.4706],[10.9807,60.5001],[11.0926,60.5168],[11.1078,60.5697],[11.154,60.6051],[11.2147,60.5638],[11.2096,60.5049],[11.3449,60.4561]]]]}},{"type":"Feature","id":"33","properties":{"fylkesnummer":"33","fylkesnavn":"Buskerud"},"geometry":{"type":"MultiPolygon","coordinates":[[[[7.7752,60.8666],[7.8515,60.9199],[8.0409,60.8932],[8.1539,60.9822],[8.2231,60.9681],[8.2209,61.0043],[8.2827,61.0333],[8.2144,61.0539],[8.3092,61.0917],[8.3663,61.0483],[8.6079,60.9823],[8.6328,60.9616],[8.6211,60.9519],[8.6541,60.9359],[8.8906,60.8966],[8.919,60.8634],[9.2913,60.7619],[9.3321,60.7299],[9.3213,60.6795],[9.3526,60.6671],[9.3788,60.6213],[9.4351,60.5996],[9.4106,60.5828],[9.4171,60.5478],[9.4839,60.5287],[9.6071,60.5389],[9.6118,60.5003],[9.8305,60.4564],[9.8105,60.5561],[9.8323,60.5797],[9.8534,60.5677],[9.9437,60.603],[9.9062,60.6351],[10.0353,60.6321],[10.0941,60.5596],[10.1564,60.5222],[10.1992,60.3755],[10.3195,60.2632],[10.3102,60.2451],[10.4952,60.1726],[10.5607,60.1656],[10.6015,60.134],[10.5728,60.1168],[10.5973,60.0773],[10.4892,60.0173],[10.4357,60.0301],[10.4125,60.0031],[10.4211,59.9861],[10.3498,59.9603],[10.3773,59.9113],[10.3285,59.8739],[10.3565,59.8042],[10.3226,59.7937],[10.3197,59.7262],[10.2901,59.7161],[10.4104,59.6671],[10.4178,59.5672],[10.398,59.5304],[10.3547,59.5517],[10.3363,59.6311],[10.2996,59.6691],[10.1155,59.6707],[10.0889,59.6426],[10.0375,59.6405],[9.9984,59.6639],[9.9811,59.618],[9.9153,59.5825],[10.06,59.473],[9.9201,59.4555],[9.8191,59.4692],[9.7585,59.4583],[9.7781,59.412],[9.6601,59.4079],[9.552,59.4873],[9.4717,59.4822],[9.5153,59.5381],[9.4645,59.5668],[9.4053,59.6845],[9.3333,59.6928],[9.3548,59.7182],[9.339,59.7195],[9.3441,59.7573],[9.3678,59.7813],[9.1861,59.827],[9.1886,59.8969],[9.1743,59.9],[9.1926,59.9168],[9.1795,59.9291],[8.9928,59.9808],[9.0024,59.9968],[8.9579,60.0981],[8.7229,60.1831],[8.4861,60.1688],[8.1041,60.1838],[7.8128,60.1027],[7.646,60.1269],[7.4883,60.0989],[7.5831,60.1757],[7.6098,60.2441],[7.6737,60.2943],[7.694,60.4264],[7.7321,60.521],[7.6396,60.5596],[7.6217,60.5961],[7.6359,60.6329],[7.5463,60.6574],[7.4388,60.66],[7.6147,60.7442],[7.7044,60.7391],[7.7262,60.7611],[7.7215,60.7901],[7.7044,60.7928],[7.7752,60.8666]]]]}},{"type":"Feature","id":"34","properties":{"fylkesnummer":"34","fylkesnavn":"Innlandet"},"geometry":{"type":"MultiPolygon","coordinates":[[[[9.827,62.3004],[9.8336,62.3287],[9.8548,62.331],[9.8214,62.3428],[9.8393,62.3621],[9.9003,62.3444],[9.9342,62.3552],[9.9518,62.3972],[10.0976,62.4278],[10.0057,62.5581],[10.0388,62.5678],[10.0267,62.5856],[10.0742,62.6019],[10.1441,62.6875],[10.1765,62.6969],[10.5928,62.6638],[10.6731,62.6751],[10.7403,62.6455],[10.8253,62.6883],[10.9282,62.6963],[11.1608,62.6474],[11.1961,62.5708],[11.2439,62.5669],[11.2542,62.5325],[11.4465,62.4703],[11.5561,62.3716],[11.6717,62.3818],[11.6888,62.3505],[11.7271,62.3476],[11.7756,62.3826],[12.0504,62.3485],[12.133,62.3099],[12.2547,62.331],[12.2994,62.2675],[12.1377,61.7238],[12.4196,61.563],[12.5693,61.5687],[12.8708,61.3565],[12.7903,61.197],[12.707,61.1433],[12.6814,61.0595],[12.4476,61.0507],[12.224,61.0131],[12.3328,60.8902],[12.3345,60.8524],[12.3954,60.7339],[12.511,60.6425],[12.5158,60.6002],[12.6069,60.5127],[12.6061,60.4059],[12.4988,60.3237],[12.5419,60.1934],[12.4805,60.073],[12.3411,59.9657],[12.1743,59.8898],[11.9852,59.9007],[11.837,59.841],[11.823,59.8928],[11.8048,59.8987],[11.8214,59.9303],[11.793,59.9565],[11.8382,60.0085],[11.8181,60.0585],[11.7915,60.0478],[11.7781,60.0897],[11.6525,60.123],[11.5624,60.176],[11.6019,60.2673],[11.4326,60.3396],[11.3422,60.4588],[11.2096,60.5049],[11.2147,60.5638],[11.154,60.6051],[11.1078,60.5697],[11.0926,60.5168],[10.9807,60.5001],[10.9226,60.4706],[10.7794,60.4892],[10.7108,60.5221],[10.7113,60.4972],[10.6924,60.492],[10.7102,60.454],[10.672,60.4339],[10.8195,60.4274],[10.9031,60.3963],[10.9339,60.3467],[10.8828,60.3187],[10.7631,60.3141],[10.7154,60.3391],[10.6051,60.3121],[10.5474,60.3276],[10.3835,60.317],[10.3653,60.3278],[10.3885,60.3752],[10.3389,60.3661],[10.2612,60.3936],[10.2021,60.3923],[10.1564,60.5222],[10.0941,60.5596],[10.0353,60.6321],[9.9062,60.6351],[9.9437,60.603],[9.8534,60.5677],[9.8323,60.5797],[9.8105,60.5561],[9.8305,60.4564],[9.6118,60.5003],[9.6071,60.5389],[9.4839,60.5287],[9.4171,60.5478],[9.4106,60.5828],[9.4351,60.5996],[9.3788,60.6213],[9.3526,60.6671],[9.3213,60.6795],[9.3321,60.7299],[9.2913,60.7619],[8.919,60.8634],[8.8906,60.8966],[8.6541,60.9359],[8.6211,60.9519],[8.6328,60.9616],[8.6079,60.9823],[8.3663,61.0483],[8.3092,61.0917],[8.2517,61.0739],[8.1339,61.1097],[8.0756,61.1797],[8.0483,61.1744],[8.0532,61.2203],[8.0067,61.235],[8.0512,61.2328],[8.2515,61.3344],[8.1614,61.3678],[8.1504,61.4267],[8.2748,61.4313],[8.3221,61.4559],[8.2623,61.534],[8.1956,61.5478],[8.1179,61.5228],[7.9473,61.5567],[7.8957,61.6436],[7.9082,61.7217],[7.7525,61.7548],[7.5138,61.7274],[7.5148,61.7603],[7.4125,61.8575],[7.3888,61.9331],[7.3934,61.9925],[7.3491,62.0077],[7.3425,62.0354],[7.402,62.0601],[7.4195,62.0807],[7.4082,62.088],[7.5143,62.0974],[7.5838,62.0653],[7.6318,62.0851],[7.5794,62.1219],[7.7346,62.1846],[7.9836,62.1775],[8.2059,62.3317],[8.3893,62.3639],[8.7926,62.3784],[8.8896,62.3755],[8.9318,62.3532],[9.0621,62.3726],[9.6019,62.2557],[9.827,62.3004]]]]}},{"type":"Feature","id":"39","properties":{"fylkesnummer":"39","fylkesnavn":"Vestfold"},"geometry":{"type":"MultiPolygon","coordinates":[[[[10.5908,59.2972],[10.5903,59.2685],[10.6551,59.192],[10.651,59.1328],[10.6227,59.1117],[10.675,59.0453],[10.6285,58.9546],[10.5931,58.761],[10.2709,58.775],[9.9698,58.7205],[9.7952,58.8982],[9.7648,59.01],[9.7825,59.03],[9.8345,58.9978],[9.8362,59.0231],[9.8129,59.036],[9.8347,59.0372],[9.8561,59.0988],[9.8206,59.1295],[9.8248,59.1576],[9.8964,59.177],[9.8572,59.2155],[9.8781,59.2207],[9.8695,59.2519],[9.7553,59.3249],[9.7828,59.3503],[9.7585,59.4583],[10.0133,59.4585],[10.06,59.473],[9.9153,59.5825],[9.9811,59.618],[9.9982,59.6638],[10.0375,59.6405],[10.0889,59.6426],[10.1155,59.6707],[10.3172,59.6607],[10.3432,59.5651],[10.398,59.5304],[10.3937,59.5147],[10.5431,59.4573],[10.544,59.4123],[10.5953,59.3741],[10.5782,59.3409],[10.5908,59.2972]]]]}},{"type":"Feature","id":"40","properties":{"fylkesnummer":"40","fylkesnavn":"Telemark"},"geometry":{"type":"MultiPolygon","coordinates":[[[[9.7719,59.343],[9.7553,59.3249],[9.8695,59.2519],[9.8781,59.2207],[9.8572,59.2155],[9.8964,59.177],[9.8248,59.1576],[9.8206,59.1295],[9.8561,59.0979],[9.8347,59.0372],[9.8129,59.036],[9.8362,59.0231],[9.8345,58.9978],[9.7825,59.03],[9.7648,59.01],[9.7831,58.9358],[9.7952,58.8982],[9.9698,58.7205],[9.7884,58.6723],[9.6689,58.6033],[9.3539,58.7768],[9.305,58.772],[9.2746,58.7957],[9.1963,58.8034],[9.2079,58.8131],[9.192,58.8145],[9.1667,58.8793],[9.0347,58.9326],[8.9949,58.9932],[8.8342,58.9881],[8.762,58.9485],[8.8307,58.9126],[8.7811,58.8676],[8.7864,58.8436],[8.7437,58.8314],[8.6534,58.8694],[8.5755,58.9314],[8.4764,58.8869],[8.3099,58.9195],[8.1733,58.9823],[8.0795,58.9722],[8.1367,58.9611],[8.0917,58.9485],[7.9681,58.9674],[7.8053,59.1171],[7.7422,59.1439],[7.7292,59.1673],[7.7437,59.1985],[7.7805,59.2207],[7.7251,59.2609],[7.6962,59.3267],[7.6143,59.3284],[7.5954,59.3767],[7.54,59.3988],[7.5819,59.4331],[7.5661,59.4384],[7.6256,59.4618],[7.5363,59.524],[7.5146,59.5615],[7.5516,59.5866],[7.5379,59.6016],[7.4423,59.6587],[7.4016,59.6595],[7.3926,59.6329],[7.3688,59.6346],[7.1101,59.7006],[7.0963,59.7828],[7.1455,59.8118],[7.161,59.8324],[7.1413,59.8536],[7.1581,59.8672],[7.1473,59.8818],[7.2329,59.9627],[7.4364,60.0192],[7.4427,60.0573],[7.4883,60.0989],[7.646,60.1269],[7.8128,60.1027],[8.1041,60.1838],[8.4861,60.1688],[8.7229,60.1831],[8.9579,60.0981],[9.0024,59.9968],[8.9928,59.9808],[9.1795,59.9291],[9.1926,59.9168],[9.1743,59.9],[9.1886,59.8969],[9.1861,59.827],[9.3678,59.7813],[9.3441,59.7573],[9.339,59.7195],[9.3548,59.7182],[9.3333,59.6928],[9.4053,59.6845],[9.4645,59.5668],[9.5153,59.5381],[9.4717,59.4822],[9.552,59.4873],[9.6601,59.4079],[9.7781,59.412],[9.7719,59.343]]]]}},{"type":"Feature","id":"42","properties":{"fylkesnummer":"42","fylkesnavn":"Agder"},"geometry":{"type":"MultiPolygon","coordinates":[[[[9.3198,58.3997],[8.9309,58.1692],[8.48,57.9495],[7.6931,57.7664],[7.1806,57.7625],[6.895,57.793],[6.4689,57.8874],[6.1497,58.0279],[6.373,58.2765],[6.5434,58.3195],[6.6085,58.3722],[6.5953,58.4163],[6.6322,58.4514],[6.5877,58.4928],[6.6182,58.5553],[6.5879,58.5902],[6.6147,58.6251],[6.5325,58.6279],[6.4975,58.6099],[6.4361,58.6493],[6.622,58.696],[6.5736,58.7414],[6.5727,58.7653],[6.5181,58.7674],[6.6086,58.8801],[6.5675,58.8857],[6.5608,58.91],[6.9037,59.1134],[6.881,59.1446],[6.9392,59.1819],[6.8377,59.1926],[6.8316,59.3173],[6.8909,59.3982],[6.9322,59.4003],[6.8828,59.4293],[7.0229,59.4812],[6.963,59.5165],[6.9803,59.5234],[6.9918,59.597],[7.0486,59.5868],[7.0987,59.6513],[7.2147,59.6727],[7.3926,59.6329],[7.4016,59.6595],[7.4423,59.6587],[7.5379,59.6016],[7.5516,59.5866],[7.5146,59.5615],[7.5363,59.524],[7.6256,59.4618],[7.5661,59.4384],[7.5819,59.4331],[7.54,59.3988],[7.5954,59.3767],[7.6143,59.3284],[7.6962,59.3267],[7.7251,59.2609],[7.7805,59.2207],[7.7437,59.1985],[7.7292,59.1673],[7.7422,59.1439],[7.8053,59.1171],[7.9681,58.9674],[8.0917,58.9485],[8.1367,58.9611],[8.0795,58.9722],[8.1733,58.9823],[8.3099,58.9195],[8.4764,58.8869],[8.5755,58.9314],[8.6534,58.8694],[8.7437,58.8314],[8.7864,58.8436],[8.7811,58.8676],[8.8307,58.9126],[8.762,58.9485],[8.8342,58.9881],[8.9949,58.9932],[9.0347,58.9326],[9.1667,58.8793],[9.192,58.8145],[9.2079,58.8131],[9.1963,58.8034],[9.2746,58.7957],[9.305,58.772],[9.3539,58.7768],[9.6689,58.6033],[9.3198,58.3997]]]]}},{"type":"Feature","id":"46","properties":{"fylkesnummer":"46","fylkesnavn":"Vestland"},"geometry":{"type":"MultiPolygon","coordinates":[[[[7.6929,60.4186],[7.6737,60.2943],[7.6098,60.2441],[7.5831,60.1757],[7.4427,60.0573],[7.4364,60.0192],[7.2329,59.9627],[7.1473,59.8818],[7.1581,59.8672],[7.1413,59.8536],[7.161,59.8324],[7.1455,59.8118],[7.0963,59.7828],[6.9772,59.7721],[6.7041,59.694],[6.6519,59.7114],[6.6901,59.7695],[6.6853,59.8312],[6.5381,59.8428],[6.4255,59.7899],[6.3024,59.7674],[6.2713,59.7358],[6.2684,59.7032],[6.2249,59.6919],[6.2071,59.6467],[6.186,59.6399],[6.183,59.5861],[6.0592,59.5983],[5.9694,59.579],[5.963,59.6011],[5.7845,59.6474],[5.7642,59.6997],[5.6875,59.6861],[5.6349,59.7003],[5.5807,59.7536],[5.5382,59.6158],[5.551,59.5655],[5.5109,59.5225],[5.3147,59.4754],[5.1874,59.5155],[4.9769,59.4961],[4.6037,59.5582],[4.6721,59.665],[4.4939,60.2722],[4.091,61.0115],[4.1543,61.6884],[4.5123,62.1125],[4.6755,62.2787],[4.8166,62.3824],[5.2179,62.2612],[5.3573,62.1686],[5.3609,62.1222],[5.5031,62.0667],[5.4855,62.0143],[5.5032,62.0079],[5.4429,61.9742],[5.476,61.9859],[5.5516,61.9604],[5.729,61.9808],[5.8026,61.966],[5.9269,61.9966],[6.0399,61.9566],[6.1166,61.9651],[6.1818,62.0107],[6.2172,62.0094],[6.2575,62.0056],[6.2358,61.9918],[6.3113,61.9587],[6.421,61.9817],[6.4311,61.9516],[6.5023,61.9233],[6.5375,61.9462],[6.6563,61.9624],[6.7481,61.9535],[6.9516,61.9887],[7.0514,61.9844],[7.0735,62.0094],[7.1855,62.0144],[7.1949,62.0307],[7.3809,62.003],[7.3989,61.9785],[7.3888,61.9331],[7.4125,61.8575],[7.5148,61.7603],[7.5138,61.7274],[7.7525,61.7548],[7.9082,61.7217],[7.8957,61.6436],[7.9473,61.5567],[8.1179,61.5228],[8.1956,61.5478],[8.2623,61.534],[8.3221,61.4559],[8.2748,61.4313],[8.1504,61.4267],[8.1595,61.3697],[8.2511,61.3391],[8.2438,61.3214],[8.1767,61.305],[8.0512,61.2328],[8.0067,61.235],[8.0532,61.2203],[8.0606,61.1933],[8.044,61.179],[8.0756,61.1797],[8.1339,61.1097],[8.2517,61.0739],[8.2144,61.0539],[8.2827,61.0333],[8.2209,61.0043],[8.2231,60.9681],[8.1539,60.9822],[8.0409,60.8932],[7.8515,60.9199],[7.803,60.8967],[7.7044,60.7928],[7.7215,60.7901],[7.7262,60.7611],[7.7044,60.7391],[7.6147,60.7442],[7.4388,60.66],[7.5463,60.6574],[7.6359,60.6329],[7.6217,60.5961],[7.6396,60.5596],[7.7321,60.521],[7.6929,60.4186]]]]}},{"type":"Feature","id":"50","properties":{"fylkesnummer":"50","fylkesnavn":"Trøndelag"},"geometry":{"type":"MultiPolygon","coordinates":[[[[9.3252,64.5473],[9.997,64.8698],[10.0894,64.9927],[10.5781,65.4702],[11.0214,65.3944],[11.4004,65.2957],[11.486,65.2369],[11.8362,65.1579],[11.9155,65.1604],[11.9462,65.1489],[11.9359,65.1266],[11.9602,65.1168],[11.8786,65.0664],[12.0489,65.0669],[12.036,65.0301],[12.0494,65.0151],[12.1317,64.999],[12.12,65.0129],[12.1499,65.0189],[12.1916,64.9991],[12.1874,64.9781],[12.2768,64.9598],[12.3892,64.9912],[12.5078,64.9771],[12.5613,64.9903],[12.6287,64.9395],[12.7151,64.9526],[12.7683,64.9408],[12.7913,64.9534],[12.7747,64.9755],[12.907,64.9742],[12.9481,65.0],[12.9079,65.0291],[12.9676,65.0329],[12.996,65.0684],[13.0532,65.0738],[13.0854,65.11],[13.1525,65.1159],[13.4112,65.0991],[14.1643,65.1392],[14.326,65.1189],[13.9776,64.8597],[13.6543,64.5803],[13.8912,64.5071],[14.1139,64.4625],[14.1571,64.1951],[13.9675,64.008],[13.2111,64.0954],[12.9267,64.058],[12.6836,63.9742],[12.3306,63.7151],[12.2995,63.672],[12.1498,63.5939],[12.2129,63.4786],[11.9746,63.2692],[12.2182,63.0003],[12.0747,62.9025],[12.1364,62.7479],[12.0561,62.6119],[12.2547,62.331],[12.1649,62.3126],[12.131,62.31],[12.0504,62.3485],[11.7756,62.3826],[11.7271,62.3476],[11.6888,62.3505],[11.6717,62.3818],[11.5561,62.3716],[11.4465,62.4703],[11.2542,62.5325],[11.2439,62.5669],[11.1961,62.5708],[11.1608,62.6474],[11.1225,62.6618],[10.9282,62.6963],[10.8253,62.6883],[10.7403,62.6455],[10.6731,62.6751],[10.5928,62.6638],[10.1765,62.6969],[10.1441,62.6875],[10.0742,62.6019],[10.0267,62.5856],[10.0388,62.5678],[10.0057,62.5581],[10.0976,62.4278],[9.9518,62.3972],[9.9342,62.3552],[9.9003,62.3444],[9.8393,62.3621],[9.8214,62.3428],[9.8548,62.331],[9.8012,62.2887],[9.6019,62.2557],[9.0621,62.3726],[9.1836,62.4266],[9.206,62.5207],[9.2437,62.5561],[9.221,62.5747],[9.1522,62.5729],[8.92,62.7118],[9.0771,62.7596],[9.3648,62.7941],[9.3236,62.8095],[9.3312,62.8621],[9.2861,62.8773],[9.3079,62.9053],[9.2667,62.9258],[9.1743,62.9172],[9.1224,62.9351],[9.1145,62.958],[9.131,62.9577],[9.1106,62.9713],[9.1776,62.993],[9.1407,63.0009],[9.1563,63.017],[9.1044,63.0291],[9.1142,63.0401],[9.0837,63.0904],[8.9728,63.0725],[8.959,63.0931],[8.9952,63.1036],[8.97,63.1339],[8.8601,63.1143],[8.8072,63.1266],[8.6526,63.0642],[8.502,63.049],[8.4815,63.0797],[8.4252,63.0467],[8.3286,63.0451],[8.2437,63.0121],[8.203,63.0228],[8.1027,63.1294],[8.2635,63.1545],[8.4829,63.1497],[8.6722,63.1873],[8.819,63.1948],[8.8627,63.2313],[8.8157,63.2661],[8.866,63.2952],[8.8631,63.3217],[8.9111,63.3565],[8.7989,63.3715],[8.8032,63.4023],[8.7629,63.4149],[8.7427,63.4475],[8.3429,63.3594],[8.2405,63.4221],[8.1087,63.5981],[8.0095,63.6491],[7.6481,63.7682],[8.1301,64.0516],[8.9405,64.3577],[9.3252,64.5473]]]]}},{"type":"Feature","id":"55","properties":{"fylkesnummer":"55","fylkesnavn":"Troms"},"geometry":{"type":"MultiPolygon","coordinates":[[[[17.6086,68.5972],[17.2045,68.5573],[16.8669,68.5728],[16.7143,68.5108],[16.5678,68.5016],[16.5526,68.4769],[16.5677,68.4343],[16.1622,68.3721],[16.0299,68.3768],[16.0405,68.4224],[16.1608,68.5221],[16.1251,68.5389],[16.0066,68.542],[15.9967,68.5557],[16.0273,68.575],[15.9623,68.6139],[15.8884,68.5579],[15.8911,68.534],[15.8291,68.5345],[15.6487,68.4433],[15.6151,68.4592],[15.6727,68.4828],[15.6676,68.5114],[15.5927,68.5699],[15.6679,68.5867],[15.6455,68.6326],[15.7774,68.6518],[15.8041,68.6766],[15.7775,68.6869],[15.7841,68.7093],[15.8802,68.7091],[15.8903,68.7276],[16.0457,68.7578],[16.024,68.8137],[15.9386,68.8115],[15.9308,68.8252],[16.0265,68.9093],[16.1123,68.9318],[16.0523,69.0086],[16.3126,69.1659],[16.5176,69.4155],[16.2544,69.5967],[17.0555,69.745],[17.4519,69.993],[18.163,70.3405],[18.3375,70.395],[18.8472,70.4872],[20.4797,70.7036],[21.0066,70.2375],[21.257,70.2188],[21.4292,70.1825],[21.6286,70.1895],[21.6086,70.1782],[21.721,70.1407],[21.7214,70.123],[21.8292,70.1008],[21.8765,70.1114],[21.8696,70.13],[21.913,70.1421],[21.9135,70.1583],[21.9648,70.1493],[22.1193,70.1705],[22.1289,70.1388],[22.1056,70.1261],[22.1702,70.0645],[22.2125,70.0587],[22.215,70.0347],[22.186,70.0111],[22.2476,69.9761],[22.2432,69.9609],[22.5267,69.901],[22.4486,69.8734],[22.5466,69.846],[22.4515,69.7907],[22.5362,69.7696],[22.5552,69.7476],[22.5387,69.7262],[22.5719,69.6962],[22.7551,69.6455],[22.8348,69.6672],[22.8945,69.6474],[22.7773,69.6068],[22.7433,69.5499],[22.7032,69.5422],[22.722,69.5085],[22.5107,69.5134],[22.2793,69.4823],[22.2732,69.4704],[22.3018,69.4527],[22.2872,69.4292],[22.3253,69.3961],[22.3278,69.3679],[22.3656,69.3628],[22.5298,69.2383],[22.5163,69.1777],[22.5289,69.1615],[22.4786,69.1099],[22.3189,69.0796],[21.9836,69.0729],[21.6271,69.2766],[21.2788,69.3119],[21.0033,69.2223],[20.9876,69.1919],[21.0556,69.1221],[21.1087,69.1039],[21.0575,69.0363],[20.7173,69.1198],[20.5523,69.0601],[20.06,69.0458],[20.3066,68.9262],[20.3359,68.8023],[20.2028,68.6659],[20.0522,68.5911],[19.9375,68.5579],[20.2265,68.4908],[19.9214,68.356],[18.9838,68.517],[18.6212,68.507],[18.4057,68.5819],[18.1259,68.5365],[18.0233,68.6085],[17.6086,68.5972]]]]}},{"type":"Feature","id":"56","properties":{"fylkesnummer":"56","fylkesnavn":"Finnmark"},"geometry":{"type":"MultiPolygon","coordinates":[[[[28.8247,69.7463],[28.4042,69.8184],[28.3305,69.8492],[28.3453,69.8808],[28.1607,69.921],[27.9843,70.014],[27.9594,70.0921],[27.7438,70.0642],[27.6125,70.0746],[27.5543,70.059],[27.526,70.0235],[27.291,69.9854],[27.2747,69.9759],[27.303,69.9623],[27.295,69.9531],[27.0398,69.9106],[26.9697,69.9385],[26.8783,69.9334],[26.8513,69.9601],[26.4905,69.945],[26.4075,69.9015],[26.4182,69.8891],[26.3859,69.8553],[26.2436,69.8167],[26.2467,69.795],[26.1834,69.7602],[26.1076,69.7297],[26.0071,69.7229],[25.8915,69.6655],[25.9553,69.6465],[25.9767,69.6107],[25.9375,69.5725],[25.8415,69.551],[25.8763,69.5286],[25.8464,69.4925],[25.8644,69.4753],[25.8337,69.4673],[25.793,69.4209],[25.8466,69.3938],[25.8126,69.3759],[25.8179,69.3602],[25.7594,69.3404],[25.7378,69.3106],[25.7432,69.2769],[25.7023,69.2543],[25.7133,69.2116],[25.693,69.1967],[25.743,69.1441],[25.7201,69.1097],[25.7243,69.0796],[25.7774,69.0183],[25.7124,68.9806],[25.6542,68.9059],[25.5881,68.8833],[25.4748,68.9045],[25.2433,68.8414],[25.1396,68.7835],[25.121,68.7456],[25.131,68.7149],[25.1071,68.6806],[25.1164,68.6396],[24.9169,68.6052],[24.9032,68.5546],[24.8572,68.5622],[24.7834,68.6362],[24.6084,68.6819],[24.251,68.7271],[24.153,68.7536],[24.1586,68.7897],[24.0756,68.78],[23.9833,68.8271],[23.8715,68.8365],[23.7754,68.8189],[23.7311,68.7508],[23.6735,68.7055],[23.4406,68.6922],[23.1676,68.6285],[23.046,68.6893],[22.8008,68.6875],[22.5354,68.7445],[22.3745,68.7167],[22.3408,68.8272],[22.1919,68.9188],[22.1758,68.9563],[21.9836,69.0729],[22.3189,69.0796],[22.4786,69.1099],[22.5289,69.1615],[22.5163,69.1777],[22.5298,69.2383],[22.3656,69.3628],[22.3278,69.3679],[22.3253,69.3961],[22.2872,69.4292],[22.3018,69.4527],[22.2732,69.4704],[22.2793,69.4823],[22.5107,69.5134],[22.722,69.5085],[22.7032,69.5422],[22.7433,69.5499],[22.7773,69.6068],[22.8945,69.6474],[22.8348,69.6672],[22.7551,69.6455],[22.5719,69.6962],[22.5387,69.7262],[22.5552,69.7476],[22.5362,69.7696],[22.4515,69.7907],[22.5466,69.846],[22.4486,69.8734],[22.5267,69.901],[22.2432,69.9609],[22.2476,69.9761],[22.186,70.0111],[22.215,70.0347],[22.2125,70.0587],[22.1702,70.0645],[22.1056,70.1261],[22.1289,70.1388],[22.1193,70.1705],[21.9648,70.1493],[21.9135,70.1583],[21.913,70.1421],[21.8696,70.13],[21.8765,70.1114],[21.8292,70.1008],[21.7214,70.123],[21.721,70.1407],[21.6086,70.1782],[21.6286,70.1895],[21.4292,70.1825],[21.257,70.2188],[21.0066,70.2375],[20.4797,70.7036],[21.7012,70.853],[22.8546,71.1059],[23.8284,71.2911],[24.6293,71.3141],[25.6827,71.3849],[27.7178,71.3323],[28.416,71.2864],[29.5662,71.0236],[30.5885,70.8323],[31.5867,70.5326],[31.7075,70.4715],[31.7601,70.4023],[31.747,70.3438],[31.6357,70.2373],[31.5856,70.1438],[31.1043,69.9793],[30.8176,69.7948],[30.8906,69.7373],[30.8737,69.7149],[30.9444,69.6832],[30.9234,69.6698],[30.9543,69.6324],[30.9389,69.561],[30.8168,69.5287],[30.516,69.5404],[30.224,69.6531],[30.1517,69.6694],[30.0853,69.6581],[30.0913,69.6428],[30.1378,69.6435],[30.1882,69.5689],[30.1741,69.5352],[30.1212,69.5151],[30.1154,69.4682],[29.9679,69.4061],[29.8599,69.424],[29.7238,69.3895],[29.5705,69.3179],[29.3965,69.3237],[29.2905,69.2973],[29.277,69.2508],[29.314,69.2312],[29.2865,69.1692],[29.2487,69.1615],[29.231,69.1217],[29.2421,69.113],[29.0414,69.0108],[28.8546,69.0766],[28.8054,69.1112],[28.8315,69.2244],[29.2193,69.3976],[29.3365,69.4783],[29.1339,69.6953],[28.8247,69.7463]]]]}}]}